OBJECT_NAME,OBJECT_ID,EPOCH,MEAN_MOTION,ECCENTRICITY,INCLINATION,RA_OF_ASC_NODE,ARG_OF_PERICENTER,MEAN_ANOMALY,EPHEMERIS_TYPE,CLASSIFICATION_TYPE,NORAD_CAT_ID,ELEMENT_SET_NO,REV_AT_EPOCH,BSTAR,MEAN_MOTION_DOT,MEAN_MOTION_DDOT
LING QIAO,2014-051A,2026-07-19T20:48:48.771360,14.30274540,.0022041,98.7070,202.6879,77.8837,282.4813,0,U,40136,999,61967,-.51004E-4,-.177E-5,0
CHUANGXIN 1-04 (CX-1-04),2014-051B,2026-07-19T21:31:12.135072,14.30416449,.0023578,98.7068,202.7688,78.8865,281.4967,0,U,40137,999,61922,-.17135E-5,-.49E-6,0
ASIASAT 6,2014-052A,2026-07-19T13:44:45.986208,1.00271833,.00008633,0.0217,82.8379,60.5575,120.0581,0,U,40141,999,4340,0,-.366E-5,0
YAOGAN-21,2014-053A,2026-07-19T20:53:40.691904,15.26792636,.000718,97.1455,239.7095,351.9054,8.2068,0,U,40143,999,65994,.94865E-4,.243E-4,0
OPTUS 10,2014-054A,2026-07-19T19:03:00.794016,1.00271007,.0001983,0.1121,19.2309,96.7935,263.3141,0,U,40146,999,4335,0,-.151E-5,0
MEASAT-3B,2014-054B,2026-07-19T20:13:13.188864,1.00272152,.0002683,0.0237,7.9208,72.4985,252.0277,0,U,40147,999,4323,0,-.245E-5,0
SJ-11-07,2014-059A,2026-07-19T20:14:00.252672,14.63767302,.0011781,97.9923,269.1627,52.1764,308.0503,0,U,40261,999,62969,.44351E-4,.185E-5,0
HIMAWARI-8,2014-060A,2026-07-19T18:48:38.666304,1.00270366,.0001246,0.0152,47.5152,115.2730,197.5966,0,U,40267,999,4308,0,-.279E-5,0
IRNSS-1C,2014-061A,2026-07-19T20:17:10.242816,1.00271583,.0021967,6.5978,88.3095,5.9687,230.6942,0,U,40269,999,4301,0,-.169E-5,0
INTELSAT 30 (IS-30),2014-062A,2026-07-19T11:33:14.537664,1.00272331,.00016741,0.0157,52.0720,340.0620,343.3983,0,U,40271,999,711,0,-.155E-5,0
ARSAT 1,2014-062B,2026-07-19T20:09:38.672352,1.00272529,.0001979,0.0534,272.3337,196.6355,59.2548,0,U,40272,999,4295,0,-.263E-5,0
YAOGAN-22,2014-063A,2026-07-19T19:28:40.589760,13.15531736,.0006903,100.7769,352.6324,115.6728,244.5096,0,U,40275,999,56410,.19096E-4,-.4E-6,0
EUTELSAT 53A,2014-064A,2026-07-20T00:45:38.769408,1.00273231,.0001771,0.0161,13.7118,188.7531,159.7790,0,U,40277,999,4189,0,.95E-6,0
SJ-11-08,2014-066A,2026-07-19T21:00:50.735808,14.66206293,.0013058,98.3567,346.2961,125.7494,234.4926,0,U,40286,999,62600,.98307E-4,.491E-5,0
NAVSTAR 72 (USA 258),2014-068A,2026-07-19T07:55:42.942432,2.00553506,.00674467,57.0098,29.7176,72.4070,288.3651,0,U,40294,999,8585,0,-.87E-6,0
MERIDIAN 7,2014-069A,2026-07-19T14:06:24.509952,2.00598313,.6636661,63.4499,212.1631,270.3516,19.8498,0,U,40296,999,8588,0,.279E-5,0
ASNARO,2014-070A,2026-07-19T19:40:52.096224,15.19416072,.0004602,97.3433,276.0560,77.0689,283.1059,0,U,40298,999,64896,.20525E-3,.4281E-4,0
YAOGAN-24,2014-072A,2026-07-19T19:44:12.273792,14.76123577,.0014956,98.1536,338.4393,155.0993,205.0941,0,U,40310,999,62853,.13788E-3,.9E-5,0
COSMOS 2501 [GLONASS-K],2014-075A,2026-07-18T06:31:19.719264,2.13101246,.00226804,63.6183,189.2960,212.6285,147.2256,0,U,40315,999,9051,0,.62E-6,0
GSAT-16,2014-078A,2026-07-19T20:24:48.269088,1.00271334,.0007522,0.0195,60.4801,35.5194,202.9022,0,U,40332,999,4243,0,.82E-6,0
DIRECTV 14,2014-078B,2026-07-19T12:42:19.650240,1.00270491,.0000312,0.0143,54.4811,330.3522,3.8113,0,U,40333,999,4236,0,-.129E-5,0
CBERS 4,2014-079A,2026-07-19T20:48:05.591232,14.35515886,.0000608,98.3510,256.6700,64.4895,295.6354,0,U,40336,999,60864,-.59992E-4,-.215E-5,0
YAOGAN-25 01A,2014-080A,2026-07-19T20:04:16.339008,13.45413592,.0369518,63.3846,226.6593,9.2907,351.4713,0,U,40338,999,57005,-.16405E-3,-.238E-5,0
YAOGAN-25 01B,2014-080B,2026-07-19T19:46:19.972992,13.45435320,.0369808,63.3855,226.8152,9.0841,351.6637,0,U,40339,999,57002,-.68869E-4,-.152E-5,0
YAOGAN-25 01C,2014-080C,2026-07-19T20:12:27.076320,13.45349766,.0369782,63.3839,227.1616,9.7619,351.0340,0,U,40340,999,57014,-.14975E-3,-.225E-5,0
YAMAL 401,2014-082A,2026-07-20T03:17:31.331616,1.00273803,.0000392,0.0175,145.8925,268.5759,22.7631,0,U,40345,999,4224,0,-.231E-5,0
O3B FM10,2014-083A,2026-07-16T17:50:14.265024,5.00115529,.0004802,0.0408,347.1886,114.2162,258.6450,0,U,40348,999,21137,0,-.25E-6,0
O3B FM11,2014-083B,2026-07-18T18:06:50.896800,5.00115570,.00025211,0.0551,350.9922,108.8128,260.2198,0,U,40349,999,21149,0,-.24E-6,0
O3B FM12,2014-083C,2026-07-19T18:44:55.166784,5.00116008,.0002486,0.0542,351.1198,124.3015,244.6012,0,U,40350,999,21154,0,-.24E-6,0
O3B FM9,2014-083D,2026-07-19T14:35:42.425952,5.00116062,.0002671,0.0559,349.9746,125.5269,244.5228,0,U,40351,999,21169,0,-.24E-6,0
COSMOS 2502,2014-086A,2026-07-19T20:11:48.446880,13.97825368,.0007668,67.1538,287.7514,251.3271,108.6982,0,U,40358,999,58851,-.12304E-3,-.25E-5,0
