LING QIAO               
1 40136U 14051A   26200.86723115 -.00000177  00000+0 -51004-4 0  9998
2 40136  98.7070 202.6879 0022041  77.8837 282.4813 14.30274540619677
CHUANGXIN 1-04 (CX-1-04)
1 40137U 14051B   26200.89666823 -.00000049  00000+0 -17135-5 0  9990
2 40137  98.7068 202.7688 0023578  78.8865 281.4967 14.30416449619228
ASIASAT 6               
1 40141U 14052A   26200.57275447 -.00000366  00000+0  00000+0 0  9997
2 40141   0.0217  82.8379 0000863  60.5575 120.0581  1.00271833 43407
YAOGAN-21               
1 40143U 14053A   26200.87060986  .00002430  00000+0  94865-4 0  9993
2 40143  97.1455 239.7095 0007180 351.9054   8.2068 15.26792636659947
OPTUS 10                
1 40146U 14054A   26200.79375919 -.00000151  00000+0  00000+0 0  9995
2 40146   0.1121  19.2309 0001983  96.7935 263.3141  1.00271007 43359
MEASAT-3B               
1 40147U 14054B   26200.84251376 -.00000245  00000+0  00000+0 0  9996
2 40147   0.0237   7.9208 0002683  72.4985 252.0277  1.00272152 43237
SJ-11-07                
1 40261U 14059A   26200.84305848  .00000185  00000+0  44351-4 0  9996
2 40261  97.9923 269.1627 0011781  52.1764 308.0503 14.63767302629690
HIMAWARI-8              
1 40267U 14060A   26200.78378086 -.00000279  00000+0  00000+0 0  9994
2 40267   0.0152  47.5152 0001246 115.2730 197.5966  1.00270366 43088
IRNSS-1C                
1 40269U 14061A   26200.84525744 -.00000169  00000+0  00000+0 0  9997
2 40269   6.5978  88.3095 0021967   5.9687 230.6942  1.00271583 43012
INTELSAT 30 (IS-30)     
1 40271U 14062A   26200.48141826 -.00000155  00000+0  00000+0 0  9991
2 40271   0.0157  52.0720 0001674 340.0620 343.3983  1.00272331  7119
ARSAT 1                 
1 40272U 14062B   26200.84003093 -.00000263  00000+0  00000+0 0  9995
2 40272   0.0534 272.3337 0001979 196.6355  59.2548  1.00272529 42958
YAOGAN-22               
1 40275U 14063A   26200.81158090 -.00000040  00000+0  19096-4 0  9997
2 40275 100.7769 352.6324 0006903 115.6728 244.5096 13.15531736564104
EUTELSAT 53A            
1 40277U 14064A   26201.03169872  .00000095  00000+0  00000+0 0  9994
2 40277   0.0161  13.7118 0001771 188.7531 159.7790  1.00273231 41899
SJ-11-08                
1 40286U 14066A   26200.87558722  .00000491  00000+0  98307-4 0  9995
2 40286  98.3567 346.2961 0013058 125.7494 234.4926 14.66206293626003
NAVSTAR 72 (USA 258)    
1 40294U 14068A   26200.33035813 -.00000087  00000+0  00000+0 0  9998
2 40294  57.0098  29.7176 0067446  72.4070 288.3651  2.00553506 85854
MERIDIAN 7              
1 40296U 14069A   26200.58778368  .00000279  00000+0  00000+0 0  9999
2 40296  63.4499 212.1631 6636661 270.3516  19.8498  2.00598313 85881
ASNARO                  
1 40298U 14070A   26200.82004741  .00004281  00000+0  20525-3 0  9992
2 40298  97.3433 276.0560 0004602  77.0689 283.1059 15.19416072648966
YAOGAN-24               
1 40310U 14072A   26200.82236428  .00000900  00000+0  13788-3 0  9995
2 40310  98.1536 338.4393 0014956 155.0993 205.0941 14.76123577628530
COSMOS 2501 [GLONASS-K] 
1 40315U 14075A   26199.27175601  .00000062  00000+0  00000+0 0  9992
2 40315  63.6183 189.2960 0022680 212.6285 147.2256  2.13101246 90513
GSAT-16                 
1 40332U 14078A   26200.85055867  .00000082  00000+0  00000+0 0  9994
2 40332   0.0195  60.4801 0007522  35.5194 202.9022  1.00271334 42432
DIRECTV 14              
1 40333U 14078B   26200.52939410 -.00000129  00000+0  00000+0 0  9997
2 40333   0.0143  54.4811 0000312 330.3522   3.8113  1.00270491 42365
CBERS 4                 
1 40336U 14079A   26200.86673138 -.00000215  00000+0 -59992-4 0  9996
2 40336  98.3510 256.6700 0000608  64.4895 295.6354 14.35515886608644
YAOGAN-25 01A           
1 40338U 14080A   26200.83630022 -.00000238  00000+0 -16405-3 0  9998
2 40338  63.3846 226.6593 0369518   9.2907 351.4713 13.45413592570050
YAOGAN-25 01B           
1 40339U 14080B   26200.82384228 -.00000152  00000+0 -68869-4 0  9999
2 40339  63.3855 226.8152 0369808   9.0841 351.6637 13.45435320570028
YAOGAN-25 01C           
1 40340U 14080C   26200.84198005 -.00000225  00000+0 -14975-3 0  9998
2 40340  63.3839 227.1616 0369782   9.7619 351.0340 13.45349766570148
YAMAL 401               
1 40345U 14082A   26201.13716819 -.00000231  00000+0  00000+0 0  9993
2 40345   0.0175 145.8925 0000392 268.5759  22.7631  1.00273803 42248
O3B FM10                
1 40348U 14083A   26197.74322066 -.00000025  00000+0  00000+0 0  9996
2 40348   0.0408 347.1886 0004802 114.2162 258.6450  5.00115529211373
O3B FM11                
1 40349U 14083B   26199.75475575 -.00000024  00000+0  00000+0 0  9993
2 40349   0.0551 350.9922 0002521 108.8128 260.2198  5.00115570211490
O3B FM12                
1 40350U 14083C   26200.78119406 -.00000024  00000+0  00000+0 0  9999
2 40350   0.0542 351.1198 0002486 124.3015 244.6012  5.00116008211542
O3B FM9                 
1 40351U 14083D   26200.60812993 -.00000024  00000+0  00000+0 0  9992
2 40351   0.0559 349.9746 0002671 125.5269 244.5228  5.00116062211699
COSMOS 2502             
1 40358U 14086A   26200.84153295 -.00000250  00000+0 -12304-3 0  9997
2 40358  67.1538 287.7514 0007668 251.3271 108.6982 13.97825368588517
